OBJECT_NAME,OBJECT_ID,EPOCH,MEAN_MOTION,ECCENTRICITY,INCLINATION,RA_OF_ASC_NODE,ARG_OF_PERICENTER,MEAN_ANOMALY,EPHEMERIS_TYPE,CLASSIFICATION_TYPE,NORAD_CAT_ID,ELEMENT_SET_NO,REV_AT_EPOCH,BSTAR,MEAN_MOTION_DOT,MEAN_MOTION_DDOT
STARLINK-4181,2022-062BE,2026-06-24T06:00:02.000160,15.11680076,.00012249,53.1607,255.1271,106.8155,277.8701,0,U,52882,999,589,.79087866E-3,.13343E-3,0
GLOBALSTAR M087,2022-064A,2026-06-23T23:20:06.216288,12.62269178,.00008572,52.0010,41.7958,52.1817,307.9127,0,U,52888,999,19199,-.401819E-5,-.104E-5,0
PVSAT,2022-065A,2026-06-24T02:52:57.302688,14.59547143,.00092794,98.2295,314.4613,4.7482,355.3804,0,U,52894,999,21336,.51331136E-4,.197E-5,0
KSLV-II DUMMY,2022-065B,2026-06-24T07:24:38.880576,14.58692394,.00086766,98.2353,315.1053,22.9873,337.1713,0,U,52895,999,21339,.14216609E-4,.2E-6,0
STEP CUBE LAB-II,2022-065D,2026-06-24T05:56:09.167712,14.63311647,.000877,98.2238,319.1274,12.1523,347.9889,0,U,52897,999,21253,.10147357E-3,.476E-5,0
RANDEV,2022-065E,2026-06-24T05:55:00.840000,14.63699887,.00081467,98.2225,319.4815,12.9263,347.2146,0,U,52898,999,21228,.12814994E-3,.619E-5,0
SNUGLITE-II,2022-065F,2026-06-24T03:17:49.797024,14.64358357,.00075213,98.2210,319.9558,12.4416,347.6971,0,U,52899,999,21201,.15583375E-3,.775E-5,0
MIMAN,2022-065G,2026-06-23T23:04:30.404064,14.61849630,.00077539,98.2268,317.4098,15.0292,345.1138,0,U,52900,999,21143,.92388357E-4,.414E-5,0
CMS-02 (GSAT-24),2022-067A,2026-06-24T04:29:01.250592,1.00271875,.00017153,0.0422,252.1119,123.7389,46.7606,0,U,52903,999,1467,0,-.158E-5,0
MEASAT 3D,2022-067B,2026-06-24T02:48:52.376832,1.00272743,.00008272,0.0482,304.7971,95.0386,6.1613,0,U,52904,999,1471,0,-.235E-5,0
YAOGAN-35 02A,2022-068A,2026-06-24T04:58:06.571200,15.24218326,.00093157,34.9906,94.2989,145.3564,214.7759,0,U,52907,999,22296,.26291835E-3,.6544E-4,0
YAOGAN-35 02B,2022-068B,2026-06-23T22:42:30.205152,15.61251335,.00035195,34.9956,13.0159,358.7764,1.2953,0,U,52908,999,22375,.93267249E-3,.82629E-3,0
GAOFEN-12 03,2022-069A,2026-06-24T06:53:17.479968,14.80042420,.0002263,97.8272,62.9778,94.3276,265.8194,0,U,52912,999,21566,.40903762E-4,.259E-5,0
SES-22,2022-071A,2026-06-24T05:08:31.790112,1.00274564,.00015833,0.0206,297.7919,146.0970,126.6234,0,U,52933,999,759,0,.112E-5,0
DS-EO,2022-072A,2026-06-24T06:08:35.730240,15.13901203,.00031356,9.9925,130.8877,47.1271,312.9208,0,U,52935,999,21958,.1930059E-3,.4422E-4,0
POEM,2022-072E,2026-06-24T03:38:30.061248,15.24141606,.00241794,9.9529,17.7454,300.6435,59.1399,0,U,52939,999,22057,.19411354E-3,.5868E-4,0
WFOV (USA 332),2022-073A,2026-06-23T23:31:27.624576,1.00272174,.00018822,3.7288,78.4476,260.0323,45.8031,0,U,52940,999,1443,0,-.358E-5,0
COSMOS 2557 [GLONASS-K],2022-075A,2026-06-22T06:29:57.729120,2.13102021,.00103034,64.2952,314.3058,273.7574,86.1177,0,U,52984,999,3082,0,-.76E-6,0
STARLINK-4260,2022-076A,2026-06-24T06:00:02.000160,15.19847726,.00009372,53.1611,335.2964,113.3329,184.4870,0,U,52986,999,575,.33335572E-2,.72782E-3,0
STARLINK-4259,2022-076B,2026-06-24T04:46:17.895936,15.08840061,.00010858,53.1604,345.8428,97.8492,262.2622,0,U,52987,999,21878,.11249056E-3,.1503E-4,0
STARLINK-4291,2022-076C,2026-06-24T06:00:02.000160,15.21073425,.00003086,53.1611,335.2200,116.8288,237.3962,0,U,52988,999,585,.33014221E-2,.74729E-3,0
STARLINK-4293,2022-076D,2026-06-24T06:00:02.000160,15.47588212,.00011773,53.2171,334.1307,76.6117,77.7015,0,U,52989,999,587,.35039302E-2,.187532E-2,0
STARLINK-4286,2022-076E,2026-06-24T06:00:02.000160,15.21020498,.00019245,53.1613,345.2354,80.0142,74.9003,0,U,52990,999,574,.25874305E-2,.58274E-3,0
STARLINK-4285,2022-076F,2026-06-24T06:00:02.000160,15.19623524,.00008084,53.1611,345.3104,81.0943,55.6071,0,U,52991,999,589,.23895567E-2,.51589E-3,0
STARLINK-4269,2022-076G,2026-06-24T04:26:28.993056,15.08838375,.00013418,53.1595,345.9157,122.5226,237.5895,0,U,52992,999,21878,-.74901515E-4,-.148E-4,0
STARLINK-4256,2022-076J,2026-06-24T06:00:02.000160,15.20906747,.00001416,53.1602,335.2799,54.4583,310.5605,0,U,52994,999,579,.46476824E-2,.105265E-2,0
STARLINK-4296,2022-076K,2026-06-24T06:00:02.000160,15.19219204,.00013328,53.1593,335.2350,46.1298,22.6760,0,U,52995,999,554,.32162756E-2,.68901E-3,0
STARLINK-4295,2022-076L,2026-06-24T06:00:02.000160,15.19128745,.00011747,53.1608,335.5196,101.3121,160.8362,0,U,52996,999,549,.33078685E-2,.70704E-3,0
STARLINK-4254,2022-076N,2026-06-24T06:00:02.000160,15.22382407,.00019766,53.1592,335.0978,84.1169,70.3483,0,U,52998,999,579,.43663286E-2,.103231E-2,0
STARLINK-4217,2022-076P,2026-06-24T06:00:02.000160,15.21445101,.00017713,53.1588,335.2034,85.3865,99.2628,0,U,52999,999,574,.3172323E-2,.72561E-3,0
STARLINK-4194,2022-076Q,2026-06-24T06:00:02.000160,15.20852378,.00007067,53.1589,335.2832,74.3466,349.6587,0,U,53000,999,579,.32062589E-2,.7207E-3,0
STARLINK-4190,2022-076R,2026-06-24T06:00:02.000160,15.18900995,.00017375,53.1589,335.3595,73.9313,50.2656,0,U,53001,999,589,.32106128E-2,.6814E-3,0
STARLINK-4121,2022-076S,2026-06-24T06:00:02.000160,15.19752289,.00006869,53.1584,335.2315,111.7310,0.3863,0,U,53002,999,579,.31584684E-2,.68712E-3,0
STARLINK-4255,2022-076T,2026-06-24T06:00:02.000160,15.21494173,.00013681,53.1603,335.2052,107.1305,135.6009,0,U,53003,999,585,.32207159E-2,.73791E-3,0
STARLINK-4253,2022-076U,2026-06-23T17:29:19.429440,15.08837859,.00012831,53.1602,337.9564,86.6128,273.5010,0,U,53004,999,21885,.50486108E-4,.516E-5,0
STARLINK-4288,2022-076V,2026-06-24T06:00:02.000160,15.19536173,.00015352,53.1598,335.2863,109.1744,113.4389,0,U,53005,999,565,.31516046E-2,.68127E-3,0
STARLINK-4290,2022-076W,2026-06-24T06:00:02.000160,15.14603922,.00011992,53.1592,335.5068,39.9264,28.1854,0,U,53006,999,585,.33314328E-2,.62476E-3,0
STARLINK-4215,2022-076X,2026-06-24T06:00:02.000160,15.16200430,.00011969,53.1592,335.4617,77.7176,94.5037,0,U,53007,999,570,.3430795E-2,.67382E-3,0
STARLINK-4275,2022-076Y,2026-06-24T06:00:02.000160,15.17205020,.00013603,53.1596,335.3525,80.0455,123.9815,0,U,53008,999,580,.33987477E-2,.68711E-3,0
STARLINK-4277,2022-076Z,2026-06-24T03:40:04.848096,15.08823275,.00012861,53.1604,326.0494,89.6564,270.4575,0,U,53009,999,21905,-.62048017E-4,-.1275E-4,0
STARLINK-4263,2022-076AA,2026-06-24T06:00:02.000160,15.17522779,.00008034,53.1610,335.1607,144.2047,163.0630,0,U,53010,999,574,.34531504E-2,.70473E-3,0
STARLINK-4265,2022-076AB,2026-06-24T05:10:08.482080,15.08838855,.00012456,53.1593,325.7687,86.3403,273.7731,0,U,53011,999,21906,.4605774E-4,.445E-5,0
STARLINK-4271,2022-076AC,2026-06-24T03:54:38.159424,15.08833150,.00012719,53.1602,336.0045,90.0899,270.0238,0,U,53012,999,21892,.90851105E-4,.1158E-4,0
STARLINK-4177,2022-076AD,2026-06-24T06:00:02.000160,15.17406395,.00009161,53.1601,325.3797,111.8762,236.8669,0,U,53013,999,589,.40416215E-2,.82397E-3,0
STARLINK-4183,2022-076AE,2026-06-24T03:45:21.753792,15.08833579,.00012337,53.1606,326.0320,87.6123,272.5010,0,U,53014,999,21905,.29306689E-4,.178E-5,0
STARLINK-4262,2022-076AF,2026-06-24T03:13:34.116096,15.08832662,.00011329,53.1615,326.1322,93.4171,266.6950,0,U,53015,999,21905,.61145422E-4,.685E-5,0
STARLINK-4283,2022-076AG,2026-06-24T03:29:28.808448,15.08824197,.00010259,53.1588,326.0820,89.9732,270.1377,0,U,53016,999,21905,.13143596E-3,.1804E-4,0
STARLINK-4281,2022-076AH,2026-06-24T06:00:02.000160,15.62622412,.00012486,53.2126,311.0147,84.5373,181.2063,0,U,53017,999,584,.42619939E-2,.407812E-2,0
STARLINK-4279,2022-076AJ,2026-06-24T06:00:02.000160,15.56601264,.00008565,53.2164,311.7898,89.4842,91.3960,0,U,53018,999,588,.7668833E-2,.598609E-2,0
STARLINK-4282,2022-076AK,2026-06-24T03:18:44.860608,15.08018952,.0001392,53.1598,326.2951,88.1310,271.9840,0,U,53019,999,21905,.57068846E-4,.603E-5,0
STARLINK-4287,2022-076AL,2026-06-24T03:18:52.003296,15.08835354,.00012825,53.1607,326.1153,86.7951,273.3188,0,U,53020,999,21905,.51186967E-4,.527E-5,0
STARLINK-4216,2022-076AN,2026-06-24T03:02:58.181856,15.08837289,.00013446,53.1587,326.1648,85.8683,274.2462,0,U,53022,999,21905,-.84146957E-4,-.1627E-4,0
STARLINK-4284,2022-076AP,2026-06-24T02:36:28.112544,15.08822432,.00013221,53.1597,326.2371,87.3462,272.7681,0,U,53023,999,21905,.84263488E-4,.1053E-4,0
STARLINK-4289,2022-076AQ,2026-06-24T02:41:46.108608,15.08832880,.00011203,53.1594,326.2302,86.3020,273.8099,0,U,53024,999,21905,.8904309E-5,-.146E-5,0
STARLINK-4218,2022-076AR,2026-06-23T20:09:36.283392,15.08841805,.00006606,53.1609,327.4562,91.8578,268.2489,0,U,53025,999,21901,.15868745E-3,.2239E-4,0
STARLINK-4119,2022-076AS,2026-06-24T06:00:02.000160,15.25471437,.00008012,53.1588,324.8604,66.2635,310.3055,0,U,53026,999,580,.45887231E-1,.1289933E-1,0
STARLINK-4158,2022-076AT,2026-06-24T06:00:02.000160,15.18274534,.00011279,53.1590,325.3215,140.2926,138.6874,0,U,53027,999,585,.38905209E-2,.81301E-3,0
STARLINK-4143,2022-076AV,2026-06-23T19:33:51.491520,15.08844947,.00011524,53.1611,317.5678,90.5537,269.5587,0,U,53029,999,21914,-.38266273E-4,-.897E-5,0
STARLINK-4160,2022-076AW,2026-06-24T06:00:02.000160,15.21093061,.00019886,53.1594,325.4273,88.3497,94.7375,0,U,53030,999,584,.48185438E-2,.109813E-2,0
STARLINK-4137,2022-076AX,2026-06-23T19:17:57.553440,15.08827775,.00011656,53.1586,317.6165,76.3649,283.7472,0,U,53031,999,21914,-.51123168E-4,-.1101E-4,0
STARLINK-4115,2022-076AY,2026-06-24T06:00:02.000160,15.17492284,.00019497,53.1590,325.3926,91.7253,129.6775,0,U,53032,999,580,.38642581E-2,.78925E-3,0
STARLINK-4167,2022-076AZ,2026-06-23T19:23:15.425952,15.08838114,.0001146,53.1600,317.6009,88.6024,271.5098,0,U,53033,999,21914,.64247605E-4,.735E-5,0
STARLINK-4151,2022-076BA,2026-06-24T01:56:47.162688,15.08835399,.00013852,53.1609,316.4212,90.4419,269.6732,0,U,53034,999,21918,.38715626E-4,.328E-5,0
STARLINK-4157,2022-076BB,2026-06-24T03:09:35.247744,15.08836777,.0001229,53.1605,316.1447,88.9140,271.1992,0,U,53035,999,21919,.43848981E-4,.41E-5,0
STARLINK-4155,2022-076BC,2026-06-23T19:07:21.415296,15.08840460,.00010871,53.1600,317.6492,77.0347,283.0766,0,U,53036,999,21914,.87838947E-4,.111E-4,0
